GPS BIIR-2  (PRN 13)    
1 24876U 97035A   25009.19233668 -.00000021  00000+0  00000+0 0  9997
2 24876  55.7429 119.0751 0086411  54.7101 306.0780  2.00562197201440
GPS BIIR-4  (PRN 20)    
1 26360U 00025A   25009.84512626 -.00000065  00000+0  00000+0 0  9994
2 26360  54.8250  40.4750 0039750 227.0019 335.1011  2.00563366180776
GPS BIIR-8  (PRN 16)    
1 27663U 03005A   25009.32773204  .00000080  00000+0  00000+0 0  9992
2 27663  55.0252 235.7933 0142820  49.0957 117.6016  2.00563086160805
GPS BIIR-9  (PRN 21)    
1 27704U 03010A   25009.30034400 -.00000088  00000+0  00000+0 0  9999
2 27704  55.0486 345.4649 0259867 333.1303  29.8535  2.00569960159608
GPS BIIR-11 (PRN 19)    
1 28190U 04009A   25006.63563097 -.00000055  00000+0  00000+0 0  9994
2 28190  55.2789 296.8984 0099211 155.9439  19.8438  2.00571860152383
GPS BIIR-13 (PRN 02)    
1 28474U 04045A   25009.30352340 -.00000088  00000+0  00000+0 0  9999
2 28474  55.3788 345.9541 0167211 299.0343  48.9990  2.00563215147917
GPS BIIRM-1 (PRN 17)    
1 28874U 05038A   25008.58830552 -.00000058  00000+0  00000+0 0  9998
2 28874  55.3210 294.2878 0135821 288.2890 244.1920  2.00571401141305
GPS BIIRM-2 (PRN 31)    
1 29486U 06042A   25009.22316671  .00000087  00000+0  00000+0 0  9998
2 29486  54.6810 172.1227 0105446  44.5892 126.2534  2.00570551133880
GPS BIIRM-3 (PRN 12)    
1 29601U 06052A   25008.90993491  .00000080  00000+0  00000+0 0  9996
2 29601  55.0627 234.8029 0087707  83.9266 277.1472  2.00552697132895
GPS BIIRM-4 (PRN 15)    
1 32260U 07047A   25009.21863253 -.00000045  00000+0  00000+0 0  9995
2 32260  53.7254 101.7156 0159079  79.4191 282.3743  2.00554667126322
GPS BIIRM-5 (PRN 29)    
1 32384U 07062A   25009.28088851 -.00000060  00000+0  00000+0 0  9996
2 32384  55.4643 295.1542 0027952 155.2450  17.8636  2.00558102125062
GPS BIIRM-6 (PRN 07)    
1 32711U 08012A   25008.63098164  .00000092  00000+0  00000+0 0  9996
2 32711  54.4571 170.8595 0191448 240.8798 117.1794  2.00553063123237
GPS BIIRM-8 (PRN 05)    
1 35752U 09043A   25009.12817021 -.00000061  00000+0  00000+0 0  9992
2 35752  55.8411  48.1112 0053561  75.4433 294.9224  2.00557239112853
GPS BIIF-1  (PRN 25)    
1 36585U 10022A   25009.21937155  .00000090  00000+0  00000+0 0  9998
2 36585  54.3803 229.6836 0121066  63.0592 130.8989  2.00561858107088
GPS BIIF-3  (PRN 24)    
1 38833U 12053A   25008.81580633  .00000078  00000+0  00000+0 0  9998
2 38833  53.5281 165.0644 0162540  59.4201 302.1522  2.00561059 88926
GPS BIIF-4  (PRN 27)    
1 39166U 13023A   25009.17661338 -.00000051  00000+0  00000+0 0  9990
2 39166  54.9342 290.2635 0130117  45.6536 315.4343  2.00562046 85374
GPS BIIF-5  (PRN 30)    
1 39533U 14008A   25009.17454614  .00000083  00000+0  00000+0 0  9993
2 39533  53.6075 170.6786 0074151 220.9173 138.5100  2.00553782 79172
GPS BIIF-6  (PRN 06)    
1 39741U 14026A   25008.95915729 -.00000080  00000+0  00000+0 0  9996
2 39741  56.6855 351.8909 0036067 315.7643  43.9523  2.00553615 78027
GPS BIIF-7  (PRN 09)    
1 40105U 14045A   25008.04293487 -.00000020  00000+0  00000+0 0  9997
2 40105  55.0298 109.4218 0029735 118.3092 241.9921  2.00550250 75544
GPS BIIF-8  (PRN 03)    
1 40294U 14068A   25008.42042498 -.00000059  00000+0  00000+0 0  9999
2 40294  56.5932  51.2490 0054521  64.3968 296.2244  2.00572793 74684
GPS BIIF-9  (PRN 26)    
1 40534U 15013A   25009.05432273  .00000093  00000+0  00000+0 0  9998
2 40534  53.2784 225.8679 0096725  33.5681 327.1110  2.00553054 71312
GPS BIIF-10 (PRN 08)    
1 40730U 15033A   25009.21519966 -.00000048  00000+0  00000+0 0  9992
2 40730  54.4151 288.6336 0102165  21.9123 338.5536  2.00556298 69482
GPS BIIF-11 (PRN 10)    
1 41019U 15062A   25009.27454488 -.00000059  00000+0  00000+0 0  9990
2 41019  56.5724  51.0712 0102744 227.3136 131.8733  2.00562797 67326
GPS BIIF-12 (PRN 32)    
1 41328U 16007A   25008.86084384 -.00000030  00000+0  00000+0 0  9990
2 41328  55.2186 110.2778 0084869 240.0266 119.1267  2.00551650 65325
GPS BIII-1  (PRN 04)    
1 43873U 18109A   25008.74764453 -.00000025  00000+0  00000+0 0  9995
2 43873  55.3859 112.9027 0032768 194.4359 337.5412  2.00563154 44554
GPS BIII-2  (PRN 18)    
1 44506U 19056A   25009.22747701 -.00000084  00000+0  00000+0 0  9997
2 44506  55.8198 351.9297 0048674 194.7764 227.2520  2.00558933 39568
GPS BIII-3  (PRN 23)    
1 45854U 20041A   25009.22220266 -.00000060  00000+0  00000+0 0  9996
2 45854  56.2925  49.3492 0050577 198.4756 159.9429  2.00568788 33528
GPS BIII-4  (PRN 14)    
1 46826U 20078A   25009.00215471  .00000084  00000+0  00000+0 0  9999
2 46826  54.1071 232.0479 0052354 198.1801 333.9129  2.00559474 30997
GPS BIII-5  (PRN 11)    
1 48859U 21054A   25009.79965986 -.00000087  00000+0  00000+0 0  9995
2 48859  55.3491 353.4626 0019340 230.8226 343.5310  2.00572638 26248
GPS BIII-6  (PRN 28)    
1 55268U 23009A   25007.20466243  .00000103  00000+0  00000+0 0  9993
2 55268  55.0889 169.1690 0002041  71.9784 106.6623  2.00549096 14697
GPS BIII-7  (PRN 01)    
1 62339U 24242A   25008.62154874 -.00000080  00000+0  00000+0 0  9996
2 62339  54.9992 355.4160 0004491 281.8262 284.7810  2.00554717   735
